{
  "type": "FeatureCollection",
  "features": [
    {
      "type": "Feature",
      "properties": {
        "norad_id": 33805,
        "name": "COSMOS 2251 DEB",
        "group": "cosmos-2251-debris",
        "lat": -21.787331227778836,
        "lon": 149.816754154818,
        "alt_km": 676.7031597443502,
        "timestamp": "2025-12-06T11:28:11.454832+00:00",
        "meta_object_name": "COSMOS 2251 DEB",
        "meta_object_id": "1993-036AW",
        "meta_epoch": "2025-12-05T23:01:06.754944",
        "meta_mean_motion": 14.57831217,
        "meta_eccentricity": 0.00604849,
        "meta_inclination": 74.0305,
        "meta_ra_of_asc_node": 324.2307,
        "meta_arg_of_pericenter": 155.1154,
        "meta_mean_anomaly": 205.295,
        "meta_ephemeris_type": 0,
        "meta_classification_type": "U",
        "meta_norad_cat_id": 33805,
        "meta_element_set_no": 999,
        "meta_rev_at_epoch": 89128,
        "meta_bstar": 0.00043196552,
        "meta_mean_motion_dot": 1.998e-05,
        "meta_mean_motion_ddot": 0,
        "tle_line1": "1 33805U 93036AW  25339.95910596  .00001998  00000+0  43197-3 0  9999",
        "tle_line2": "2 33805  74.0305 324.2307 0060484 155.1154 205.2950 14.57831217891285"
      },
      "geometry": {
        "type": "Point",
        "coordinates": [
          149.816754154818,
          -21.787331227778836
        ]
      }
    },
    {
      "type": "Feature",
      "properties": {
        "norad_id": 33811,
        "name": "COSMOS 2251 DEB",
        "group": "cosmos-2251-debris",
        "lat": 73.29036695508641,
        "lon": 30.676521719782944,
        "alt_km": 529.9880672753125,
        "timestamp": "2025-12-06T11:28:11.454843+00:00",
        "meta_object_name": "COSMOS 2251 DEB",
        "meta_object_id": "1993-036BC",
        "meta_epoch": "2025-12-05T22:26:10.468032",
        "meta_mean_motion": 15.04933339,
        "meta_eccentricity": 0.00308222,
        "meta_inclination": 73.8375,
        "meta_ra_of_asc_node": 316.7662,
        "meta_arg_of_pericenter": 38.7131,
        "meta_mean_anomaly": 345.7826,
        "meta_ephemeris_type": 0,
        "meta_classification_type": "U",
        "meta_norad_cat_id": 33811,
        "meta_element_set_no": 999,
        "meta_rev_at_epoch": 89916,
        "meta_bstar": 0.0016924236,
        "meta_mean_motion_dot": 0.00024274,
        "meta_mean_motion_ddot": 0,
        "tle_line1": "1 33811U 93036BC  25339.93484338  .00024274  00000+0  16924-2 0  9993",
        "tle_line2": "2 33811  73.8375 316.7662 0030822  38.7131 345.7826 15.04933339899168"
      },
      "geometry": {
        "type": "Point",
        "coordinates": [
          30.676521719782944,
          73.29036695508641
        ]
      }
    },
    {
      "type": "Feature",
      "properties": {
        "norad_id": 33815,
        "name": "COSMOS 2251 DEB",
        "group": "cosmos-2251-debris",
        "lat": -63.16905712346617,
        "lon": 44.39381828512164,
        "alt_km": 522.1793190360477,
        "timestamp": "2025-12-06T11:28:11.454853+00:00",
        "meta_object_name": "COSMOS 2251 DEB",
        "meta_object_id": "1993-036BG",
        "meta_epoch": "2025-12-05T15:38:33.645984",
        "meta_mean_motion": 15.15669665,
        "meta_eccentricity": 0.00039828,
        "meta_inclination": 73.9545,
        "meta_ra_of_asc_node": 191.4421,
        "meta_arg_of_pericenter": 238.2627,
        "meta_mean_anomaly": 183.6726,
        "meta_ephemeris_type": 0,
        "meta_classification_type": "U",
        "meta_norad_cat_id": 33815,
        "meta_element_set_no": 999,
        "meta_rev_at_epoch": 88263,
        "meta_bstar": 0.0093696602,
        "meta_mean_motion_dot": 0.00182935,
        "meta_mean_motion_ddot": 0,
        "tle_line1": "1 33815U 93036BG  25339.65177831  .00182935  00000+0  93697-2 0  9994",
        "tle_line2": "2 33815  73.9545 191.4421 0003982 238.2627 183.6726 15.15669665882639"
      },
      "geometry": {
        "type": "Point",
        "coordinates": [
          44.39381828512164,
          -63.16905712346617
        ]
      }
    },
    {
      "type": "Feature",
      "properties": {
        "norad_id": 33816,
        "name": "COSMOS 2251 DEB",
        "group": "cosmos-2251-debris",
        "lat": -73.22084622735841,
        "lon": 42.62726656506621,
        "alt_km": 1121.327494965315,
        "timestamp": "2025-12-06T11:28:11.454864+00:00",
        "meta_object_name": "COSMOS 2251 DEB",
        "meta_object_id": "1993-036BH",
        "meta_epoch": "2025-12-05T18:31:33.740256",
        "meta_mean_motion": 13.81768007,
        "meta_eccentricity": 0.02651218,
        "meta_inclination": 73.894,
        "meta_ra_of_asc_node": 117.2049,
        "meta_arg_of_pericenter": 131.4901,
        "meta_mean_anomaly": 230.9314,
        "meta_ephemeris_type": 0,
        "meta_classification_type": "U",
        "meta_norad_cat_id": 33816,
        "meta_element_set_no": 999,
        "meta_rev_at_epoch": 84577,
        "meta_bstar": 0.00097673267,
        "meta_mean_motion_dot": 1.344e-05,
        "meta_mean_motion_ddot": 0,
        "tle_line1": "1 33816U 93036BH  25339.77191829  .00001344  00000+0  97673-3 0  9994",
        "tle_line2": "2 33816  73.8940 117.2049 0265121 131.4901 230.9314 13.81768007845778"
      },
      "geometry": {
        "type": "Point",
        "coordinates": [
          42.62726656506621,
          -73.22084622735841
        ]
      }
    },
    {
      "type": "Feature",
      "properties": {
        "norad_id": 33818,
        "name": "COSMOS 2251 DEB",
        "group": "cosmos-2251-debris",
        "lat": -60.162136394910604,
        "lon": 29.031849825702164,
        "alt_km": 532.1133068394738,
        "timestamp": "2025-12-06T11:28:11.454874+00:00",
        "meta_object_name": "COSMOS 2251 DEB",
        "meta_object_id": "1993-036BK",
        "meta_epoch": "2025-12-05T23:57:52.387200",
        "meta_mean_motion": 15.11736648,
        "meta_eccentricity": 0.00286944,
        "meta_inclination": 74.0749,
        "meta_ra_of_asc_node": 180.1668,
        "meta_arg_of_pericenter": 171.2977,
        "meta_mean_anomaly": 344.905,
        "meta_ephemeris_type": 0,
        "meta_classification_type": "U",
        "meta_norad_cat_id": 33818,
        "meta_element_set_no": 999,
        "meta_rev_at_epoch": 89760,
        "meta_bstar": 0.0028853841,
        "meta_mean_motion_dot": 0.00049984,
        "meta_mean_motion_ddot": 0,
        "tle_line1": "1 33818U 93036BK  25339.99852300  .00049984  00000+0  28854-2 0  9994",
        "tle_line2": "2 33818  74.0749 180.1668 0028694 171.2977 344.9050 15.11736648897606"
      },
      "geometry": {
        "type": "Point",
        "coordinates": [
          29.031849825702164,
          -60.162136394910604
        ]
      }
    },
    {
      "type": "Feature",
      "properties": {
        "norad_id": 33819,
        "name": "COSMOS 2251 DEB",
        "group": "cosmos-2251-debris",
        "lat": 6.699258811866334,
        "lon": -136.91951076012327,
        "alt_km": 771.6309283115152,
        "timestamp": "2025-12-06T11:28:11.454884+00:00",
        "meta_object_name": "COSMOS 2251 DEB",
        "meta_object_id": "1993-036BL",
        "meta_epoch": "2025-12-05T19:00:36.213120",
        "meta_mean_motion": 14.32186081,
        "meta_eccentricity": 0.00888081,
        "meta_inclination": 74.1796,
        "meta_ra_of_asc_node": 222.4119,
        "meta_arg_of_pericenter": 85.8435,
        "meta_mean_anomaly": 347.6294,
        "meta_ephemeris_type": 0,
        "meta_classification_type": "U",
        "meta_norad_cat_id": 33819,
        "meta_element_set_no": 999,
        "meta_rev_at_epoch": 87396,
        "meta_bstar": 0.0012969663,
        "meta_mean_motion_dot": 3.626e-05,
        "meta_mean_motion_ddot": 0,
        "tle_line1": "1 33819U 93036BL  25339.79208580  .00003626  00000+0  12970-2 0  9993",
        "tle_line2": "2 33819  74.1796 222.4119 0088808  85.8435 347.6294 14.32186081873968"
      },
      "geometry": {
        "type": "Point",
        "coordinates": [
          -136.91951076012327,
          6.699258811866334
        ]
      }
    },
    {
      "type": "Feature",
      "properties": {
        "norad_id": 33821,
        "name": "COSMOS 2251 DEB",
        "group": "cosmos-2251-debris",
        "lat": 60.8682555676568,
        "lon": -54.854868616797184,
        "alt_km": 476.51035309621693,
        "timestamp": "2025-12-06T11:28:11.454894+00:00",
        "meta_object_name": "COSMOS 2251 DEB",
        "meta_object_id": "1993-036BN",
        "meta_epoch": "2025-12-05T22:22:03.983520",
        "meta_mean_motion": 15.24699557,
        "meta_eccentricity": 0.00536172,
        "meta_inclination": 74.0286,
        "meta_ra_of_asc_node": 157.2217,
        "meta_arg_of_pericenter": 192.4249,
        "meta_mean_anomaly": 167.5634,
        "meta_ephemeris_type": 0,
        "meta_classification_type": "U",
        "meta_norad_cat_id": 33821,
        "meta_element_set_no": 999,
        "meta_rev_at_epoch": 74897,
        "meta_bstar": 0.0015425628,
        "meta_mean_motion_dot": 0.00039923,
        "meta_mean_motion_ddot": 0,
        "tle_line1": "1 33821U 93036BN  25339.93199055  .00039923  00000+0  15426-2 0  9996",
        "tle_line2": "2 33821  74.0286 157.2217 0053617 192.4249 167.5634 15.24699557748974"
      },
      "geometry": {
        "type": "Point",
        "coordinates": [
          -54.854868616797184,
          60.8682555676568
        ]
      }
    }
  ]
}